{
  "type": "FeatureCollection",
  "features": [
    {
      "type": "Feature",
      "properties": {
        "name": "MK Total",
        "acres": 200,
        "type": "main_property"
      },
      "geometry": {
        "type": "Polygon",
        "coordinates": [[
          [-74.4416788, 42.8857327],
          [-74.4432022, 42.8860199],
          [-74.4429448, 42.8867392],
          [-74.4532866, 42.8874451],
          [-74.448555, 42.88168],
          [-74.4426474, 42.8841822],
          [-74.4416788, 42.8857327]
        ]]
      }
    },
    {
      "type": "Feature",
      "properties": {
        "name": "MK Total 2",
        "type": "adjacent_property"
      },
      "geometry": {
        "type": "Polygon",
        "coordinates": [[
          [-74.441915, 42.884703],
          [-74.441279, 42.884434],
          [-74.438578, 42.885411],
          [-74.434465, 42.886861],
          [-74.434961, 42.887513],
          [-74.44102, 42.886615],
          [-74.4418507, 42.8851182],
          [-74.4419178, 42.8848627],
          [-74.441915, 42.884703]
        ]]
      }
    }
  ]
}
