{
  "type": "FeatureCollection",
  "features": [
    {
      "type": "Feature",
      "properties": {
        "name": "Main Loop Trail",
        "distance": "1.5 miles",
        "type": "hiking_trail"
      },
      "geometry": {
        "type": "LineString",
        "coordinates": [
          [-74.4416461, 42.8849971],
          [-74.4417212, 42.8850639],
          [-74.4418124, 42.8850993],
          [-74.4418507, 42.8851182],
          [-74.442086, 42.8851701],
          [-74.4425098, 42.8852133],
          [-74.4426975, 42.8851936],
          [-74.4428745, 42.8851543],
          [-74.4430247, 42.8850796],
          [-74.443132, 42.885001],
          [-74.4432071, 42.8849106],
          [-74.4432769, 42.8848163],
          [-74.4433412, 42.8847259],
          [-74.4433681, 42.884663],
          [-74.4433512, 42.8845461],
          [-74.4432888, 42.8844267],
          [-74.4432012, 42.8843284],
          [-74.443055, 42.8842531],
          [-74.4428956, 42.8842085],
          [-74.4427324, 42.8841912],
          [-74.4425612, 42.8842002],
          [-74.4424156, 42.8842356],
          [-74.4422894, 42.8842911],
          [-74.4421859, 42.8843605],
          [-74.4420983, 42.8844412],
          [-74.4420297, 42.8845305],
          [-74.4419821, 42.8846267],
          [-74.4419569, 42.8847283],
          [-74.4419551, 42.8848334],
          [-74.4419769, 42.8849401],
          [-74.4420221, 42.8850459],
          [-74.4420896, 42.8851486],
          [-74.4421778, 42.8852457],
          [-74.4422854, 42.8853348],
          [-74.4424096, 42.8854133],
          [-74.4425483, 42.8854783],
          [-74.4426979, 42.8855276],
          [-74.4428554, 42.8855595],
          [-74.4430177, 42.8855721],
          [-74.4431813, 42.8855646],
          [-74.4433421, 42.8855357],
          [-74.4434962, 42.8854848],
          [-74.4436389, 42.8854115],
          [-74.4437660, 42.8853161],
          [-74.4438732, 42.8851987],
          [-74.4439568, 42.8850605],
          [-74.4440135, 42.8849031],
          [-74.4440410, 42.8847285],
          [-74.4440379, 42.8845384],
          [-74.4440036, 42.8843348],
          [-74.4439372, 42.8841204],
          [-74.4438386, 42.8838972],
          [-74.4437073, 42.8836685],
          [-74.4435440, 42.8834369],
          [-74.4433490, 42.8832055],
          [-74.4431221, 42.8829778],
          [-74.4428638, 42.8827567],
          [-74.4425754, 42.8825449],
          [-74.4422596, 42.8823451],
          [-74.4419182, 42.8821596],
          [-74.4415528, 42.8819911],
          [-74.4411654, 42.8818422],
          [-74.4407582, 42.8817150],
          [-74.4403338, 42.8816121],
          [-74.4398946, 42.8815357],
          [-74.4394433, 42.8814880],
          [-74.4389830, 42.8814702],
          [-74.4385170, 42.8814834],
          [-74.4380492, 42.8815281],
          [-74.4375839, 42.8816050],
          [-74.4371256, 42.8817141],
          [-74.4366793, 42.8818550],
          [-74.4362499, 42.8820271],
          [-74.4358425, 42.8822301],
          [-74.4354631, 42.8824632],
          [-74.4351171, 42.8827257],
          [-74.4348104, 42.8830166],
          [-74.4345489, 42.8833345],
          [-74.4343387, 42.8836784],
          [-74.4341862, 42.8840464],
          [-74.4340975, 42.8844360],
          [-74.4340793, 42.8848445],
          [-74.4341285, 42.8852689],
          [-74.4342430, 42.8857066],
          [-74.4344200, 42.8861534],
          [-74.4346569, 42.8866058],
          [-74.4349514, 42.8870601],
          [-74.4353012, 42.8875119],
          [-74.4357045, 42.8879577],
          [-74.4361595, 42.8883937],
          [-74.4366641, 42.8888161],
          [-74.4372159, 42.8892209],
          [-74.4378122, 42.8896041],
          [-74.4384502, 42.8899621],
          [-74.4391274, 42.8902908],
          [-74.4398409, 42.8905870],
          [-74.4405876, 42.8908474],
          [-74.4413648, 42.8910685],
          [-74.4421701, 42.8912474],
          [-74.4430005, 42.8913810],
          [-74.4438540, 42.8914671],
          [-74.4447281, 42.8915034],
          [-74.4456205, 42.8914878],
          [-74.4465286, 42.8914189],
          [-74.4474502, 42.8912951],
          [-74.4483832, 42.8911155],
          [-74.4493254, 42.8908793],
          [-74.4502748, 42.8905860],
          [-74.4512289, 42.8902354],
          [-74.4521852, 42.8898271],
          [-74.4531414, 42.8893608],
          [-74.4540950, 42.8888366],
          [-74.4550437, 42.8882548],
          [-74.4559853, 42.8876163],
          [-74.4569177, 42.8869222],
          [-74.4578387, 42.8861747],
          [-74.4587462, 42.8853762],
          [-74.4596381, 42.8845295],
          [-74.4605122, 42.8836381],
          [-74.4613666, 42.8827053],
          [-74.4621992, 42.8817351],
          [-74.4630082, 42.8807318],
          [-74.4637917, 42.8796999],
          [-74.4645476, 42.8786440],
          [-74.4652751, 42.8775689],
          [-74.4659722, 42.8764796],
          [-74.4666375, 42.8753815],
          [-74.4672694, 42.8742808],
          [-74.4678662, 42.8731838],
          [-74.4684262, 42.8720966],
          [-74.4689478, 42.8710251],
          [-74.4694297, 42.8699758],
          [-74.4698705, 42.8689548],
          [-74.4702688, 42.8679679],
          [-74.4706234, 42.8670212],
          [-74.4709330, 42.8661209],
          [-74.4711963, 42.8652733],
          [-74.4714120, 42.8644851],
          [-74.4715789, 42.8637627],
          [-74.4716963, 42.8631124],
          [-74.4717631, 42.8625407],
          [-74.4717785, 42.8620535],
          [-74.4717411, 42.8616573],
          [-74.4716503, 42.8613582],
          [-74.4715054, 42.8611619],
          [-74.4713059, 42.8610744],
          [-74.4710514, 42.8611008],
          [-74.4707417, 42.8612458],
          [-74.4703774, 42.8615146],
          [-74.4699593, 42.8619116],
          [-74.4694886, 42.8624413],
          [-74.4689666, 42.8631073],
          [-74.4683948, 42.8639139],
          [-74.4677749, 42.8648650],
          [-74.4671092, 42.8659645],
          [-74.4664001, 42.8672162],
          [-74.4656500, 42.8686236],
          [-74.4648619, 42.8701900],
          [-74.4640393, 42.8719188],
          [-74.4631860, 42.8738124],
          [-74.4623055, 42.8758738],
          [-74.4613917, 42.8781050],
          [-74.4604388, 42.8805076],
          [-74.4594418, 42.8830831],
          [-74.4584057, 42.8858330],
          [-74.4573252, 42.8887580],
          [-74.4562062, 42.8918592],
          [-74.4550440, 42.8951372],
          [-74.4538349, 42.8985923],
          [-74.4525756, 42.9022250],
          [-74.4512626, 42.9060346],
          [-74.4498930, 42.9100210],
          [-74.4484633, 42.9141835],
          [-74.4469705, 42.9185219],
          [-74.4454124, 42.9230349],
          [-74.4437872, 42.9277223],
          [-74.4420932, 42.9325829],
          [-74.4403289, 42.9376156],
          [-74.4384930, 42.9428191],
          [-74.4365844, 42.9481925],
          [-74.4346026, 42.9537344],
          [-74.4325472, 42.9594425],
          [-74.4304179, 42.9653160],
          [-74.4282151, 42.9713531],
          [-74.4259393, 42.9775525],
          [-74.4235911, 42.9839123],
          [-74.4211712, 42.9904308],
          [-74.4186802, 42.9971059],
          [-74.4161192, 43.0039364],
          [-74.4134896, 43.0109201],
          [-74.4107932, 43.0180558],
          [-74.4080327, 43.0253412],
          [-74.4052110, 43.0327750],
          [-74.4023301, 43.0403548],
          [-74.3993932, 43.0480788],
          [-74.3964041, 43.0559454],
          [-74.3933655, 43.0639531],
          [-74.3902808, 43.0721000],
          [-74.3871537, 43.0803842],
          [-74.3839877, 43.0888037],
          [-74.3807862, 43.0973568],
          [-74.3775533, 43.1060415],
          [-74.3742933, 43.1148559],
          [-74.3710105, 43.1237984],
          [-74.3677091, 43.1328660],
          [-74.3643945, 43.1420569],
          [-74.3610712, 43.1513680],
          [-74.3577448, 43.1607965],
          [-74.3544202, 43.1703398],
          [-74.3511033, 43.1799948],
          [-74.3478002, 43.1897589],
          [-74.3445168, 43.1996294],
          [-74.3412591, 43.2096033],
          [-74.3380340, 43.2196777],
          [-74.3348481, 43.2298498],
          [-74.3317082, 43.2401159],
          [-74.3286211, 43.2504729],
          [-74.3255947, 43.2609175],
          [-74.3226362, 43.2714463],
          [-74.3197529, 43.2820552],
          [-74.3169527, 43.2927407],
          [-74.3142428, 43.3034990],
          [-74.3116305, 43.3143260],
          [-74.3091236, 43.3252180],
          [-74.3067298, 43.3361712],
          [-74.3044568, 43.3471816],
          [-74.3023124, 43.3582456],
          [-74.3003042, 43.3693596],
          [-74.2984398, 43.3805198],
          [-74.2967270, 43.3917226],
          [-74.2951733, 43.4029643],
          [-74.2937868, 43.4142407],
          [-74.2925751, 43.4255482],
          [-74.2915460, 43.4368823],
          [-74.2907077, 43.4482392],
          [-74.2900687, 43.4596150],
          [-74.2896369, 43.4710053],
          [-74.2894205, 43.4824062],
          [-74.2894284, 43.4938127],
          [-74.2896696, 43.5052210],
          [-74.2901531, 43.5166260],
          [-74.2908881, 43.5280232],
          [-74.2918837, 43.5394075],
          [-74.2931491, 43.5507743],
          [-74.2946933, 43.5621179],
          [-74.2965249, 43.5734332],
          [-74.2986521, 43.5847148],
          [-74.3010834, 43.5959573],
          [-74.3038269, 43.6071560],
          [-74.3068909, 43.6183052],
          [-74.3102832, 43.6293996],
          [-74.3140117, 43.6404346],
          [-74.3180844, 43.6514050],
          [-74.3225099, 43.6623055],
          [-74.3272968, 43.6731310],
          [-74.3324537, 43.6838761],
          [-74.3379891, 43.6945360],
          [-74.3439113, 43.7051053],
          [-74.3502283, 43.7155788],
          [-74.3569388, 43.7259512],
          [-74.3640412, 43.7362178],
          [-74.3715343, 43.7463640],
          [-74.3794170, 43.7563851],
          [-74.3876880, 43.7662761],
          [-74.3963454, 43.7760318],
          [-74.4053881, 43.7856478],
          [-74.4148143, 43.7951189],
          [-74.4246223, 43.8044408],
          [-74.4348105, 43.8136091],
          [-74.4453766, 43.8226194],
          [-74.4563188, 43.8314674],
          [-74.4676345, 43.8401491],
          [-74.4793216, 43.8486603],
          [-74.4913776, 43.8569970],
          [-74.5038003, 43.8651554],
          [-74.5165877, 43.8731318],
          [-74.5297380, 43.8809225],
          [-74.5432491, 43.8885238],
          [-74.5571186, 43.8959321],
          [-74.5713441, 43.9031436],
          [-74.5859236, 43.9101548],
          [-74.6008547, 43.9169621],
          [-74.6161350, 43.9235620],
          [-74.6317615, 43.9299507],
          [-74.6477315, 43.9361244],
          [-74.6640422, 43.9420796],
          [-74.6806903, 43.9478126],
          [-74.6976730, 43.9533196],
          [-74.7149874, 43.9585971],
          [-74.7326304, 43.9636416],
          [-74.7505981, 43.9684493],
          [-74.7688878, 43.9730165],
          [-74.7874958, 43.9773398],
          [-74.8064184, 43.9814156],
          [-74.8256527, 43.9852408],
          [-74.8451950, 43.9888122],
          [-74.8650416, 43.9921269],
          [-74.8851889, 43.9951819],
          [-74.9056335, 43.9979738],
          [-74.9263720, 44.0005001],
          [-74.9474008, 44.0027586],
          [-74.9687164, 44.0047469],
          [-74.9903155, 44.0064625],
          [-75.0121945, 44.0079032],
          [-75.0343492, 44.0090672],
          [-75.0567761, 44.0099527],
          [-75.0794708, 44.0105582],
          [-75.1024298, 44.0108819],
          [-75.1256490, 44.0109222],
          [-75.1491241, 44.0106782],
          [-75.1728507, 44.0101493],
          [-75.1968247, 44.0093349],
          [-75.2210419, 44.0082349],
          [-75.2454982, 44.0068490],
          [-75.2701892, 44.0051768],
          [-75.2951108, 44.0032180],
          [-75.3202588, 44.0009725],
          [-75.3456292, 42.9984403],
          [-75.3712179, 42.9956214],
          [-75.3970209, 42.9925161],
          [-75.4230343, 42.9891246],
          [-75.4492543, 42.9854471],
          [-75.4756772, 42.9814841],
          [-75.5023001, 42.9772360],
          [-75.5291194, 42.9727033],
          [-75.5561313, 42.9678866],
          [-75.5833330, 42.9627867],
          [-75.6107211, 42.9574043],
          [-75.6382927, 42.9517401],
          [-75.6660454, 42.9457947],
          [-75.6939768, 42.9395690],
          [-75.7220839, 42.9330637],
          [-75.7503644, 42.9262797],
          [-75.7788154, 42.9192179],
          [-75.8074349, 42.9118793],
          [-75.8362200, 42.9042650],
          [-75.8651685, 42.8963761],
          [-75.8942777, 42.8882138],
          [-75.9235453, 42.8797793],
          [-75.9529686, 42.8710738],
          [-75.9825453, 42.8620985],
          [-76.0122733, 42.8528548],
          [-76.0421503, 42.8433440],
          [-76.0721741, 42.8335673],
          [-76.1023423, 42.8235262],
          [-76.1326527, 42.8132221],
          [-76.1631031, 42.8026563],
          [-76.1936912, 42.7918303],
          [-76.2244148, 42.7807455],
          [-76.2552717, 42.7694034],
          [-76.2862597, 42.7578059],
          [-76.3173766, 42.7459544],
          [-76.3486203, 42.7338507],
          [-76.3799886, 42.7214961],
          [-76.4114794, 42.7088923],
          [-76.4430905, 42.6960411],
          [-76.4748198, 42.6829441],
          [-76.5066651, 42.6696032],
          [-76.5386244, 42.6560201],
          [-76.5706955, 42.6421960],
          [-76.6028763, 42.6281327],
          [-76.6351647, 42.6138323],
          [-76.6675586, 42.5992966],
          [-76.7000560, 42.5845278],
          [-76.7326549, 42.5695281],
          [-76.7653533, 42.5542995],
          [-76.7981492, 42.5388441],
          [-76.8310407, 42.5231642],
          [-76.8640259, 42.5072620],
          [-76.8971030, 42.4911397],
          [-76.9302701, 42.4747996],
          [-76.9635263, 42.4582440],
          [-76.9968695, 42.4414752],
          [-77.0302980, 42.4244955],
          [-77.0638099, 42.4073074],
          [-77.0974034, 42.3899135],
          [-77.1310767, 42.3723162],
          [-77.1648280, 42.3545181],
          [-77.1986556, 42.3365218],
          [-77.2325579, 42.3183300],
          [-77.2665330, 42.2999455],
          [-77.3005794, 42.2813709],
          [-77.3346953, 42.2626090],
          [-77.3688792, 42.2436626],
          [-77.4031294, 42.2245346],
          [-77.4374442, 42.2052279],
          [-77.4718220, 42.1857454],
          [-77.5062611, 42.1660912],
          [-77.5407599, 42.1462682],
          [-77.5753168, 42.1262804],
          [-77.6099301, 42.1061319],
          [-77.6445984, 42.0858258],
          [-77.6793199, 42.0653662],
          [-77.7140941, 42.0447564],
          [-77.7489195, 42.0239998],
          [-77.7837945, 42.0031010],
          [-77.8187176, 41.9820635],
          [-77.8536868, 41.9608921],
          [-77.8887005, 41.9395907],
          [-77.9237573, 41.9181640],
          [-77.9588557, 41.8966161],
          [-77.9939936, 41.8749519],
          [-78.0291696, 41.8531759],
          [-78.0643819, 41.8312933],
          [-78.0996291, 41.8093089],
          [-78.1349099, 41.7872273],
          [-78.1702228, 41.7650538],
          [-78.2055665, 41.7427933],
          [-78.2409398, 41.7204514],
          [-78.2763412, 41.6980331],
          [-78.3117694, 41.6755444],
          [-78.3472232, 41.6529905],
          [-78.3827012, 41.6303772],
          [-78.4182022, 41.6077106],
          [-78.4537250, 41.5849968],
          [-78.4892684, 41.5622418],
          [-78.5248313, 41.5394518],
          [-78.5604124, 41.5166330],
          [-78.5960104, 41.4937915],
          [-78.6316243, 41.4709335],
          [-78.6672529, 41.4480652],
          [-78.7028951, 41.4251927],
          [-78.7385497, 41.4023122],
          [-78.7742157, 41.3794297],
          [-78.8098920, 41.3565413],
          [-78.8455776, 41.3336532],
          [-78.8812714, 41.3107716],
          [-78.9169722, 41.2879027],
          [-78.9526790, 41.2650528],
          [-78.9883916, 41.2422282],
          [-79.0241087, 41.2194351],
          [-79.0598293, 41.1966699],
          [-79.0955522, 41.1739390],
          [-79.1312774, 41.1512488],
          [-79.1670037, 41.1286058],
          [-79.2027300, 41.1060165],
          [-79.2384561, 41.0834875],
          [-79.2741809, 41.0610252],
          [-79.3099032, 41.0386363],
          [-79.3456229, 41.0163272],
          [-79.3813389, 40.9940945],
          [-79.4170502, 40.9719452],
          [-79.4527556, 40.9498854],
          [-79.4884540, 40.9279116],
          [-79.5241442, 40.9060305],
          [-79.5598250, 40.8842384],
          [-79.5954954, 40.8625318],
          [-79.6311542, 40.8409073],
          [-79.6667903, 40.8193624],
          [-79.7024027, 40.7978936],
          [-79.7379902, 40.7764974],
          [-79.7735516, 40.7551712],
          [-79.8090859, 40.7339110],
          [-79.8445920, 40.7127140],
          [-79.8800688, 40.6915768],
          [-79.9155153, 40.6704958],
          [-79.9509303, 40.6494682],
          [-79.9863128, 40.6284907],
          [-80.0216616, 40.6075603],
          [-80.0569758, 40.5866735],
          [-80.0922542, 40.5658272],
          [-80.1274959, 40.5450180],
          [-74.4416461, 42.8849971]
        ]
      }
    }
  ]
}
